0 PEGASUS DEB
1 25445U 94029ADZ 13283.73708453  .00001016  00000-0  18251-3 0  7062
2 25445 081.9900 281.8135 0165658 117.4566 006.4727 14.57088089859499
0 PEGASUS DEB
1 25445U 94029ADZ 13286.68951508  .00001313  00000-0  23715-3 0  7072
2 25445 081.9904 278.9730 0165639 108.3079 013.4436 14.57091498859929
0 PEGASUS DEB
1 25445U 94029ADZ 13289.44269965  .00001498  00000-0  27122-3 0  7089
2 25445 081.9909 276.3237 0165664 099.7617 055.3429 14.57101950860325
0 PEGASUS DEB
1 25445U 94029ADZ 13293.42628341  .00002137  00000-0  38883-3 0  7097
2 25445 081.9917 272.4906 0165553 087.4726 071.4231 14.57112485860905
0 PEGASUS DEB
1 25445U 94029ADZ 13295.68439647  .00002471  00000-0  45021-3 0  7101
2 25445 081.9920 270.3185 0165489 080.4633 036.5825 14.57120539861230
